{"type": "FeatureCollection", "features": [ {"type": "Feature", "properties": {"norad_id": 34570, "name": "COSMOS 2251 DEB", "group": "cosmos-2251-debris", "lat": -70.77982128242897, "lon": 174.48195077495802, "alt_km": 1035.934415683586, "timestamp": "2025-12-05T22:40:48.944787+00:00", "meta": {"OBJECT_NAME": "COSMOS 2251 DEB", "OBJECT_ID": "1993-036VG", "EPOCH": "2025-12-05T03:05:31.629984", "MEAN_MOTION": 13.99801513, "ECCENTRICITY": 0.01903032, "INCLINATION": 73.958, "RA_OF_ASC_NODE": 231.5177, "ARG_OF_PERICENTER": 115.6994, "MEAN_ANOMALY": 13.1865, "EPHEMERIS_TYPE": 0, "CLASSIFICATION_TYPE": "U", "NORAD_CAT_ID": 34570, "ELEMENT_SET_NO": 999, "REV_AT_EPOCH": 85494, "BSTAR": 0.00081468933, "MEAN_MOTION_DOT": 1.373e-05, "MEAN_MOTION_DDOT": 0}, "tle": {"line1": "1 34570U 93036VG  25339.12883831  .00001373  00000+0  81469-3 0  9990", "line2": "2 34570  73.9580 231.5177 0190303 115.6994  13.1865 13.99801513854944"}}, "geometry": {"type": "Point", "coordinates": [174.48195077495802, -70.77982128242897]}}, {"type": "Feature", "properties": {"norad_id": 34571, "name": "COSMOS 2251 DEB", "group": "cosmos-2251-debris", "lat": 14.84913217060651, "lon": -160.48386605687423, "alt_km": 768.780894489405, "timestamp": "2025-12-05T22:40:48.944797+00:00", "meta": {"OBJECT_NAME": "COSMOS 2251 DEB", "OBJECT_ID": "1993-036VH", "EPOCH": "2025-12-03T00:59:43.530720", "MEAN_MOTION": 14.48571332, "ECCENTRICITY": 0.00666537, "INCLINATION": 74.0399, "RA_OF_ASC_NODE": 200.6016, "ARG_OF_PERICENTER": 237.8665, "MEAN_ANOMALY": 121.6017, "EPHEMERIS_TYPE": 0, "CLASSIFICATION_TYPE": "U", "NORAD_CAT_ID": 34571, "ELEMENT_SET_NO": 999, "REV_AT_EPOCH": 87153, "BSTAR": 0.002487781, "MEAN_MOTION_DOT": 9.601e-05, "MEAN_MOTION_DDOT": 0}, "tle": {"line1": "1 34571U 93036VH  25337.04147605  .00009601  00000+0  24878-2 0  9994", "line2": "2 34571  74.0399 200.6016 0066653 237.8665 121.6017 14.48571332871532"}}, "geometry": {"type": "Point", "coordinates": [-160.48386605687423, 14.84913217060651]}}, {"type": "Feature", "properties": {"norad_id": 34572, "name": "COSMOS 2251 DEB", "group": "cosmos-2251-debris", "lat": -27.856140439477844, "lon": -42.9969193097115, "alt_km": 686.7348075622776, "timestamp": "2025-12-05T22:40:48.944808+00:00", "meta": {"OBJECT_NAME": "COSMOS 2251 DEB", "OBJECT_ID": "1993-036VJ", "EPOCH": "2025-12-03T10:14:07.080576", "MEAN_MOTION": 14.49672328, "ECCENTRICITY": 0.00639869, "INCLINATION": 74.0096, "RA_OF_ASC_NODE": 133.0197, "ARG_OF_PERICENTER": 208.2005, "MEAN_ANOMALY": 181.8869, "EPHEMERIS_TYPE": 0, "CLASSIFICATION_TYPE": "U", "NORAD_CAT_ID": 34572, "ELEMENT_SET_NO": 999, "REV_AT_EPOCH": 87243, "BSTAR": 0.0038394199, "MEAN_MOTION_DOT": 0.00015164, "MEAN_MOTION_DDOT": 0}, "tle": {"line1": "1 34572U 93036VJ  25337.42647084  .00015164  00000+0  38394-2 0  9992", "line2": "2 34572  74.0096 133.0197 0063986 208.2005 181.8869 14.49672328872433"}}, "geometry": {"type": "Point", "coordinates": [-42.9969193097115, -27.856140439477844]}}, {"type": "Feature", "properties": {"norad_id": 34574, "name": "COSMOS 2251 DEB", "group": "cosmos-2251-debris", "lat": -46.38351331898398, "lon": 38.85197972440884, "alt_km": 695.0174757529467, "timestamp": "2025-12-05T22:40:48.944818+00:00", "meta": {"OBJECT_NAME": "COSMOS 2251 DEB", "OBJECT_ID": "1993-036VL", "EPOCH": "2025-12-05T05:05:33.914112", "MEAN_MOTION": 14.70474844, "ECCENTRICITY": 0.00669895, "INCLINATION": 74.0703, "RA_OF_ASC_NODE": 57.7127, "ARG_OF_PERICENTER": 81.2459, "MEAN_ANOMALY": 312.8896, "EPHEMERIS_TYPE": 0, "CLASSIFICATION_TYPE": "U", "NORAD_CAT_ID": 34574, "ELEMENT_SET_NO": 999, "REV_AT_EPOCH": 88668, "BSTAR": 0.0018703262, "MEAN_MOTION_DOT": 0.00011728, "MEAN_MOTION_DDOT": 0}, "tle": {"line1": "1 34574U 93036VL  25339.21219808  .00011728  00000+0  18703-2 0  9996", "line2": "2 34574  74.0703  57.7127 0066989  81.2459 312.8896 14.70474844886688"}}, "geometry": {"type": "Point", "coordinates": [38.85197972440884, -46.38351331898398]}}, {"type": "Feature", "properties": {"norad_id": 34576, "name": "COSMOS 2251 DEB", "group": "cosmos-2251-debris", "lat": -63.154117966293235, "lon": 116.61897107563074, "alt_km": 709.6031084897022, "timestamp": "2025-12-05T22:40:48.944828+00:00", "meta": {"OBJECT_NAME": "COSMOS 2251 DEB", "OBJECT_ID": "1993-036VN", "EPOCH": "2025-12-03T11:44:15.751680", "MEAN_MOTION": 14.55313315, "ECCENTRICITY": 0.00078434, "INCLINATION": 74.0325, "RA_OF_ASC_NODE": 155.7197, "ARG_OF_PERICENTER": 289.1778, "MEAN_ANOMALY": 100.8938, "EPHEMERIS_TYPE": 0, "CLASSIFICATION_TYPE": "U", "NORAD_CAT_ID": 34576, "ELEMENT_SET_NO": 999, "REV_AT_EPOCH": 88332, "BSTAR": 0.0011687279, "MEAN_MOTION_DOT": 5.044e-05, "MEAN_MOTION_DDOT": 0}, "tle": {"line1": "1 34576U 93036VN  25337.48907120  .00005044  00000+0  11687-2 0  9994", "line2": "2 34576  74.0325 155.7197 0007843 289.1778 100.8938 14.55313315883321"}}, "geometry": {"type": "Point", "coordinates": [116.61897107563074, -63.154117966293235]}}, {"type": "Feature", "properties": {"norad_id": 34579, "name": "COSMOS 2251 DEB", "group": "cosmos-2251-debris", "lat": 35.29567139930777, "lon": -111.78002165646843, "alt_km": 738.6227169925514, "timestamp": "2025-12-05T22:40:48.944838+00:00", "meta": {"OBJECT_NAME": "COSMOS 2251 DEB", "OBJECT_ID": "1993-036VR", "EPOCH": "2025-12-05T04:57:46.517760", "MEAN_MOTION": 14.4527312, "ECCENTRICITY": 0.00275494, "INCLINATION": 74.0538, "RA_OF_ASC_NODE": 237.9159, "ARG_OF_PERICENTER": 307.7276, "MEAN_ANOMALY": 209.5758, "EPHEMERIS_TYPE": 0, "CLASSIFICATION_TYPE": "U", "NORAD_CAT_ID": 34579, "ELEMENT_SET_NO": 999, "REV_AT_EPOCH": 88065, "BSTAR": 0.00092129948, "MEAN_MOTION_DOT": 3.222e-05, "MEAN_MOTION_DDOT": 0}, "tle": {"line1": "1 34579U 93036VR  25339.20678840  .00003222  00000+0  92130-3 0  9992", "line2": "2 34579  74.0538 237.9159 0027549 307.7276 209.5758 14.45273120880654"}}, "geometry": {"type": "Point", "coordinates": [-111.78002165646843, 35.29567139930777]}}, {"type": "Feature", "properties": {"norad_id": 34582, "name": "COSMOS 2251 DEB", "group": "cosmos-2251-debris", "lat": 22.466685944767054, "lon": -68.18240588010909, "alt_km": 714.108326681413, "timestamp": "2025-12-05T22:40:48.944849+00:00", "meta": {"OBJECT_NAME": "COSMOS 2251 DEB", "OBJECT_ID": "1993-036VU", "EPOCH": "2025-12-05T05:56:14.580672", "MEAN_MOTION": 14.43262676, "ECCENTRICITY": 0.00474293, "INCLINATION": 74.0202, "RA_OF_ASC_NODE": 286.3088, "ARG_OF_PERICENTER": 38.1911, "MEAN_ANOMALY": 322.259, "EPHEMERIS_TYPE": 0, "CLASSIFICATION_TYPE": "U", "NORAD_CAT_ID": 34582, "ELEMENT_SET_NO": 999, "REV_AT_EPOCH": 87839, "BSTAR": 0.0015549265, "MEAN_MOTION_DOT": 5.284e-05, "MEAN_MOTION_DDOT": 0}, "tle": {"line1": "1 34582U 93036VU  25339.24739098  .00005284  00000+0  15549-2 0  9991", "line2": "2 34582  74.0202 286.3088 0047429  38.1911 322.2590 14.43262676878392"}}, "geometry": {"type": "Point", "coordinates": [-68.18240588010909, 22.466685944767054]}}, {"type": "Feature", "properties": {"norad_id": 34588, "name": "COSMOS 2251 DEB", "group": "cosmos-2251-debris", "lat": 64.39594643565067, "lon": 64.18847950974097, "alt_km": 755.0312542446309, "timestamp": "2025-12-05T22:40:48.944859+00:00", "meta": {"OBJECT_NAME": "COSMOS 2251 DEB", "OBJECT_ID": "1993-036WA", "EPOCH": "2025-12-05T06:15:18.698112", "MEAN_MOTION": 14.41982903, "ECCENTRICITY": 0.00189829, "INCLINATION": 74.0441, "RA_OF_ASC_NODE": 282.1131, "ARG_OF_PERICENTER": 335.6731, "MEAN_ANOMALY": 183.1556, "EPHEMERIS_TYPE": 0, "CLASSIFICATION_TYPE": "U", "NORAD_CAT_ID": 34588, "ELEMENT_SET_NO": 999, "REV_AT_EPOCH": 87842, "BSTAR": 0.00099316745, "MEAN_MOTION_DOT": 3.239e-05, "MEAN_MOTION_DDOT": 0}, "tle": {"line1": "1 34588U 93036WA  25339.26063308  .00003239  00000+0  99317-3 0  9997", "line2": "2 34588  74.0441 282.1131 0018982 335.6731 183.1556 14.41982903878423"}}, "geometry": {"type": "Point", "coordinates": [64.18847950974097, 64.39594643565067]}}, {"type": "Feature", "properties": {"norad_id": 34589, "name": "COSMOS 2251 DEB", "group": "cosmos-2251-debris", "lat": -55.329815127578584, "lon": -87.75189553052086, "alt_km": 1073.5967839261903, "timestamp": "2025-12-05T22:40:48.944870+00:00", "meta": {"OBJECT_NAME": "COSMOS 2251 DEB", "OBJECT_ID": "1993-036WB", "EPOCH": "2025-12-04T16:24:19.082016", "MEAN_MOTION": 13.86044118, "ECCENTRICITY": 0.0251655, "INCLINATION": 73.9245, "RA_OF_ASC_NODE": 69.7581, "ARG_OF_PERICENTER": 14.7216, "MEAN_ANOMALY": 54.2278, "EPHEMERIS_TYPE": 0, "CLASSIFICATION_TYPE": "U", "NORAD_CAT_ID": 34589, "ELEMENT_SET_NO": 999, "REV_AT_EPOCH": 84600, "BSTAR": 0.00040059, "MEAN_MOTION_DOT": 5.67e-06, "MEAN_MOTION_DDOT": 0}, "tle": {"line1": "1 34589U 93036WB  25338.68355419  .00000567  00000+0  40059-3 0  9990", "line2": "2 34589  73.9245  69.7581 0251655  14.7216  54.2278 13.86044118846004"}}, "geometry": {"type": "Point", "coordinates": [-87.75189553052086, -55.329815127578584]}}, {"type": "Feature", "properties": {"norad_id": 34590, "name": "COSMOS 2251 DEB", "group": "cosmos-2251-debris", "lat": -15.243804195109604, "lon": -29.06526758865052, "alt_km": 740.2745617838009, "timestamp": "2025-12-05T22:40:48.944880+00:00", "meta": {"OBJECT_NAME": "COSMOS 2251 DEB", "OBJECT_ID": "1993-036WC", "EPOCH": "2025-12-03T18:43:59.825856", "MEAN_MOTION": 14.54808943, "ECCENTRICITY": 0.00680312, "INCLINATION": 74.0436, "RA_OF_ASC_NODE": 339.4993, "ARG_OF_PERICENTER": 111.7106, "MEAN_ANOMALY": 61.8791, "EPHEMERIS_TYPE": 0, "CLASSIFICATION_TYPE": "U", "NORAD_CAT_ID": 34590, "ELEMENT_SET_NO": 999, "REV_AT_EPOCH": 88990, "BSTAR": 0.0001775441, "MEAN_MOTION_DOT": 7.56e-06, "MEAN_MOTION_DDOT": 0}, "tle": {"line1": "1 34590U 93036WC  25337.78055354  .00000756  00000+0  17754-3 0  9993", "line2": "2 34590  74.0436 339.4993 0068031 111.7106  61.8791 14.54808943889904"}}, "geometry": {"type": "Point", "coordinates": [-29.06526758865052, -15.243804195109604]}}]}